<?xml version="1.0" encoding="UTF-8"?>
<ndm xmlns:xsi="http://www.w3.org/2001/XMLSchema-instance" xsi:noNamespaceSchemaLocation="https://sanaregistry.org/r/ndmxml_unqualified/ndmxml-2.0.0-master-2.0.xsd">
<omm id="CCSDS_OMM_VERS" version="2.0">
<header><CREATION_DATE/><ORIGINATOR/></header><body><segment><metadata><OBJECT_NAME>IRIDIUM 57</OBJECT_NAME><OBJECT_ID>1998-019B</OBJECT_ID><CENTER_NAME>EARTH</CENTER_NAME><REF_FRAME>TEME</REF_FRAME><TIME_SYSTEM>UTC</TIME_SYSTEM><MEAN_ELEMENT_THEORY>SGP4</MEAN_ELEMENT_THEORY></metadata><data><meanElements><EPOCH>2024-10-03T04:53:32.132832</EPOCH><MEAN_MOTION>14.35442088</MEAN_MOTION><ECCENTRICITY>.0002329</ECCENTRICITY><INCLINATION>86.3919</INCLINATION><RA_OF_ASC_NODE>252.8464</RA_OF_ASC_NODE><ARG_OF_PERICENTER>89.4320</ARG_OF_PERICENTER><MEAN_ANOMALY>270.7143</MEAN_ANOMALY></meanElements><tleParameters><EPHEMERIS_TYPE>0</EPHEMERIS_TYPE><CLASSIFICATION_TYPE>U</CLASSIFICATION_TYPE><NORAD_CAT_ID>25273</NORAD_CAT_ID><ELEMENT_SET_NO>999</ELEMENT_SET_NO><REV_AT_EPOCH>38812</REV_AT_EPOCH><BSTAR>.8023E-3</BSTAR><MEAN_MOTION_DOT>.2323E-4</MEAN_MOTION_DOT><MEAN_MOTION_DDOT>0</MEAN_MOTION_DDOT></tleParameters></data></segment></body></omm>
<omm id="CCSDS_OMM_VERS" version="2.0">
<header><CREATION_DATE/><ORIGINATOR/></header><body><segment><metadata><OBJECT_NAME>IRIDIUM 63</OBJECT_NAME><OBJECT_ID>1998-021B</OBJECT_ID><CENTER_NAME>EARTH</CENTER_NAME><REF_FRAME>TEME</REF_FRAME><TIME_SYSTEM>UTC</TIME_SYSTEM><MEAN_ELEMENT_THEORY>SGP4</MEAN_ELEMENT_THEORY></metadata><data><meanElements><EPOCH>2024-10-03T04:26:09.371616</EPOCH><MEAN_MOTION>14.36050590</MEAN_MOTION><ECCENTRICITY>.0002433</ECCENTRICITY><INCLINATION>86.4058</INCLINATION><RA_OF_ASC_NODE>189.8196</RA_OF_ASC_NODE><ARG_OF_PERICENTER>78.7214</ARG_OF_PERICENTER><MEAN_ANOMALY>281.4256</MEAN_ANOMALY></meanElements><tleParameters><EPHEMERIS_TYPE>0</EPHEMERIS_TYPE><CLASSIFICATION_TYPE>U</CLASSIFICATION_TYPE><NORAD_CAT_ID>25286</NORAD_CAT_ID><ELEMENT_SET_NO>999</ELEMENT_SET_NO><REV_AT_EPOCH>38722</REV_AT_EPOCH><BSTAR>.83608E-3</BSTAR><MEAN_MOTION_DOT>.2449E-4</MEAN_MOTION_DOT><MEAN_MOTION_DDOT>0</MEAN_MOTION_DDOT></tleParameters></data></segment></body></omm>
<omm id="CCSDS_OMM_VERS" version="2.0">
<header><CREATION_DATE/><ORIGINATOR/></header><body><segment><metadata><OBJECT_NAME>IRIDIUM 69</OBJECT_NAME><OBJECT_ID>1998-026A</OBJECT_ID><CENTER_NAME>EARTH</CENTER_NAME><REF_FRAME>TEME</REF_FRAME><TIME_SYSTEM>UTC</TIME_SYSTEM><MEAN_ELEMENT_THEORY>SGP4</MEAN_ELEMENT_THEORY></metadata><data><meanElements><EPOCH>2024-10-02T20:45:59.118048</EPOCH><MEAN_MOTION>14.40329374</MEAN_MOTION><ECCENTRICITY>.0003954</ECCENTRICITY><INCLINATION>86.4041</INCLINATION><RA_OF_ASC_NODE>203.9960</RA_OF_ASC_NODE><ARG_OF_PERICENTER>116.5552</ARG_OF_PERICENTER><MEAN_ANOMALY>243.6053</MEAN_ANOMALY></meanElements><tleParameters><EPHEMERIS_TYPE>0</EPHEMERIS_TYPE><CLASSIFICATION_TYPE>U</CLASSIFICATION_TYPE><NORAD_CAT_ID>25319</NORAD_CAT_ID><ELEMENT_SET_NO>999</ELEMENT_SET_NO><REV_AT_EPOCH>38601</REV_AT_EPOCH><BSTAR>.12779E-2</BSTAR><MEAN_MOTION_DOT>.4069E-4</MEAN_MOTION_DOT><MEAN_MOTION_DDOT>0</MEAN_MOTION_DDOT></tleParameters></data></segment></body></omm>
<omm id="CCSDS_OMM_VERS" version="2.0">
<header><CREATION_DATE/><ORIGINATOR/></header><body><segment><metadata><OBJECT_NAME>IRIDIUM 71</OBJECT_NAME><OBJECT_ID>1998-026B</OBJECT_ID><CENTER_NAME>EARTH</CENTER_NAME><REF_FRAME>TEME</REF_FRAME><TIME_SYSTEM>UTC</TIME_SYSTEM><MEAN_ELEMENT_THEORY>SGP4</MEAN_ELEMENT_THEORY></metadata><data><meanElements><EPOCH>2024-10-03T04:33:05.950944</EPOCH><MEAN_MOTION>14.40620375</MEAN_MOTION><ECCENTRICITY>.0001931</ECCENTRICITY><INCLINATION>86.4047</INCLINATION><RA_OF_ASC_NODE>198.6047</RA_OF_ASC_NODE><ARG_OF_PERICENTER>141.5616</ARG_OF_PERICENTER><MEAN_ANOMALY>218.5721</MEAN_ANOMALY></meanElements><tleParameters><EPHEMERIS_TYPE>0</EPHEMERIS_TYPE><CLASSIFICATION_TYPE>U</CLASSIFICATION_TYPE><NORAD_CAT_ID>25320</NORAD_CAT_ID><ELEMENT_SET_NO>999</ELEMENT_SET_NO><REV_AT_EPOCH>38683</REV_AT_EPOCH><BSTAR>.93804E-3</BSTAR><MEAN_MOTION_DOT>.3009E-4</MEAN_MOTION_DOT><MEAN_MOTION_DDOT>0</MEAN_MOTION_DDOT></tleParameters></data></segment></body></omm>
<omm id="CCSDS_OMM_VERS" version="2.0">
<header><CREATION_DATE/><ORIGINATOR/></header><body><segment><metadata><OBJECT_NAME>IRIDIUM 73</OBJECT_NAME><OBJECT_ID>1998-032C</OBJECT_ID><CENTER_NAME>EARTH</CENTER_NAME><REF_FRAME>TEME</REF_FRAME><TIME_SYSTEM>UTC</TIME_SYSTEM><MEAN_ELEMENT_THEORY>SGP4</MEAN_ELEMENT_THEORY></metadata><data><meanElements><EPOCH>2024-10-02T05:06:18.058464</EPOCH><MEAN_MOTION>14.50941757</MEAN_MOTION><ECCENTRICITY>.0002652</ECCENTRICITY><INCLINATION>86.4463</INCLINATION><RA_OF_ASC_NODE>156.3223</RA_OF_ASC_NODE><ARG_OF_PERICENTER>95.2159</ARG_OF_PERICENTER><MEAN_ANOMALY>264.9349</MEAN_ANOMALY></meanElements><tleParameters><EPHEMERIS_TYPE>0</EPHEMERIS_TYPE><CLASSIFICATION_TYPE>U</CLASSIFICATION_TYPE><NORAD_CAT_ID>25344</NORAD_CAT_ID><ELEMENT_SET_NO>999</ELEMENT_SET_NO><REV_AT_EPOCH>39314</REV_AT_EPOCH><BSTAR>.71235E-3</BSTAR><MEAN_MOTION_DOT>.2832E-4</MEAN_MOTION_DOT><MEAN_MOTION_DDOT>0</MEAN_MOTION_DDOT></tleParameters></data></segment></body></omm>
<omm id="CCSDS_OMM_VERS" version="2.0">
<header><CREATION_DATE/><ORIGINATOR/></header><body><segment><metadata><OBJECT_NAME>IRIDIUM 82</OBJECT_NAME><OBJECT_ID>1998-051A</OBJECT_ID><CENTER_NAME>EARTH</CENTER_NAME><REF_FRAME>TEME</REF_FRAME><TIME_SYSTEM>UTC</TIME_SYSTEM><MEAN_ELEMENT_THEORY>SGP4</MEAN_ELEMENT_THEORY></metadata><data><meanElements><EPOCH>2024-10-03T04:07:34.605120</EPOCH><MEAN_MOTION>15.15371823</MEAN_MOTION><ECCENTRICITY>.0116596</ECCENTRICITY><INCLINATION>86.3732</INCLINATION><RA_OF_ASC_NODE>234.3258</RA_OF_ASC_NODE><ARG_OF_PERICENTER>179.7740</ARG_OF_PERICENTER><MEAN_ANOMALY>180.3575</MEAN_ANOMALY></meanElements><tleParameters><EPHEMERIS_TYPE>0</EPHEMERIS_TYPE><CLASSIFICATION_TYPE>U</CLASSIFICATION_TYPE><NORAD_CAT_ID>25467</NORAD_CAT_ID><ELEMENT_SET_NO>999</ELEMENT_SET_NO><REV_AT_EPOCH>38481</REV_AT_EPOCH><BSTAR>.13502E-2</BSTAR><MEAN_MOTION_DOT>.30385E-3</MEAN_MOTION_DOT><MEAN_MOTION_DDOT>0</MEAN_MOTION_DDOT></tleParameters></data></segment></body></omm>
</ndm>
