IRIDIUM 57              
1 25273U 98019B   24277.20384413  .00002323  00000+0  80230-3 0  9998
2 25273  86.3919 252.8464 0002329  89.4320 270.7143 14.35442088388125
IRIDIUM 63              
1 25286U 98021B   24277.18483069  .00002449  00000+0  83608-3 0  9990
2 25286  86.4058 189.8196 0002433  78.7214 281.4256 14.36050590387222
IRIDIUM 69              
1 25319U 98026A   24276.86526757  .00004069  00000+0  12779-2 0  9998
2 25319  86.4041 203.9960 0003954 116.5552 243.6053 14.40329374386018
IRIDIUM 71              
1 25320U 98026B   24277.18965221  .00003009  00000+0  93804-3 0  9991
2 25320  86.4047 198.6047 0001931 141.5616 218.5721 14.40620375386832
IRIDIUM 73              
1 25344U 98032C   24276.21270901  .00002832  00000+0  71235-3 0  9998
2 25344  86.4463 156.3223 0002652  95.2159 264.9349 14.50941757393149
IRIDIUM 82              
1 25467U 98051A   24277.17192830  .00030385  00000+0  13502-2 0  9991
2 25467  86.3732 234.3258 0116596 179.7740 180.3575 15.15371823384814
